[Satellite]
VERSION=1.1
NAME=TIANLIAN 1-04
NICKNAME=TIANLIAN 1-04
TLE1=1 41869U 16072A   17186.16974000 -.00000108  00000-0  00000-0 0  9994
TLE2=2 41869   2.6232 289.7289 0007157 155.8326 335.8722  1.00271169  2537
